#cP2017 12  5  0  0  0.00000000      96 ORBIT IGS14 HLM  IGS
## 1978 172800.00000000   900.00000000 58092 0.0000000000000
+   32   G01G02G03G04G05G06G07G08G09G10G11G12G13G14G15G16G17
+        G18G19G20G21G22G23G24G25G26G27G28G29G30G31G32  0  0
+          0  0  0  0  0  0  0  0  0  0  0  0  0  0  0  0  0
+          0  0  0  0  0  0  0  0  0  0  0  0  0  0  0  0  0
+          0  0  0  0  0  0  0  0  0  0  0  0  0  0  0  0  0
++         2  2  2  0  2  2  2  2  2  2  2  2  2  2  2  2  2
++         2  2  2  3  2  2  3  2  2  2  2  2  2  2  3  0  0
++         0  0  0  0  0  0  0  0  0  0  0  0  0  0  0  0  0
++         0  0  0  0  0  0  0  0  0  0  0  0  0  0  0  0  0
++         0  0  0  0  0  0  0  0  0  0  0  0  0  0  0  0  0
%c G  cc GPS ccc cccc cccc cccc cccc ccccc ccccc ccccc ccccc
%c cc cc ccc ccc cccc cccc cccc cccc ccccc ccccc ccccc ccccc
%f  1.2500000  1.025000000  0.00000000000  0.000000000000000
%f  0.0000000  0.000000000  0.00000000000  0.000000000000000
%i    0    0    0    0      0      0      0      0         0
%i    0    0    0    0      0      0      0      0         0
/* RAPID ORBIT COMBINATION FROM WEIGHTED AVERAGE OF:        
/* cod emr esa gfz jpl ngs sio usn whu                      
/* REFERENCED TO IGS TIME (IGST) AND TO WEIGHTED MEAN POLE: 
/* PCV:IGS14_1977 OL/AL:FES2004  NONE     Y  ORB:CMB CLK:CMB
*  2017 12  5  8 15  0.00000000
PG01  14675.035475  -2962.208844  21807.216711    -14.728897  3  4  5 116       
PG02 -14151.935457 -19684.137542 -10652.007193    263.515716  6  6  3 100       
PG03  21749.226822 -11277.188061  10178.320951    -31.950361  4  6  5  53       
PG04  -1304.750565  18594.770615 -19038.016331 999999.999999
PG05 -14372.944132  -7221.424634 -21262.628993    -20.696447  8  7  6  75       
PG06  -7379.204986 -25486.521496  -1087.328859    412.292574  6  2  4  71       
PG07   7740.164679 -18596.592469 -16878.718082    270.291217  6  4  5 125       
PG08  26000.645355   5170.798759   2527.864711    -83.002473  5  4  8  86       
PG09  14461.273543 -10578.105160 -19644.495440    479.609887  6  6  4 112       
PG10  -6077.587578  20880.118506  15176.215150    123.786336  4  5  7  58       
PG11  18619.500322    426.399724  18334.458892   -729.347643  5  6  4  93       
PG12 -21784.540482   7756.689705  12720.614052    361.819251  5  6  4 102       
PG13 -23145.577466 -12442.537930  -3915.756396    -94.530882  8  9  9 105       
PG14  11837.929864  16969.763658  17025.575299    -89.956666  6  6  5  54       
PG15 -26371.306907  -2361.245134   3744.927417   -357.349824  8 10  9 106       
PG16  14008.588430   6917.372277 -21673.555223     35.784034  8  6  8 107       
PG17  -2291.712686 -15934.846135  21532.966887   -140.170689  8  7  6  92       
PG18 -13890.259012  21845.691771   6100.514835    633.265778  4  5  4 101       
PG19 -10543.717003 -16642.812460  17428.542052   -471.753770  7  7  7  87       
PG20 -20956.744041   9476.042527 -13407.615985    494.696215  8  7  7 124       
PG21  -4958.157608  20851.336181 -14857.564487   -455.682806  6  7  8 147       
PG22  20821.247929  -4708.420098  16056.436835   -211.822693  3  5  5  92       
PG23  23462.851067  -2907.839717 -12256.135491   -218.900518  5  4  6 102       
PG24 -15979.797528      3.647493  21148.207184    -43.053311  6  9  2 112       
PG25 -19643.465394  17609.795764   1563.351845   -500.641720  7  8  8  88       
PG26   5029.425758  15716.505481 -20781.598238   -337.027709  5  6  6  98       
PG27  21709.952459  12476.390332  -9258.004872    353.545126  3  5  6  89       
PG28  10489.606356 -20524.229317  13853.707282    668.321273  5  5  4  84       
PG29 -18797.342036   6040.983762 -17771.497597    529.410928  4  7  6 112       
PG30   1705.319378 -24846.217919  -9011.749038    123.119086  6  5  7 117       
PG31   7425.409631  25128.074623  -2561.981491    157.611500  8  8  5  86       
PG32   4730.534008  16248.938856  20507.199308   -528.067560  5  4  7  49       
*  2017 12  5  8 30  0.00000000
PG01  15353.323937   -549.486184  21559.148864    -14.731158  3  3  4 120       
PG02 -14288.424679 -20839.469251  -8121.777537    263.506989  6  7  4  87       
PG03  21004.798035 -10178.151443  12609.312276    -31.945009  4  6  6  59       
PG04  -2845.939517  19947.791414 -17385.968946 999999.999999
PG05 -12742.368424  -9028.138593 -21592.472875    -20.695122  8  7  6  61       
PG06  -7146.467064 -25515.865564   1785.782731    412.293579  5  2  3  47       
PG07   8450.244146 -16636.859864 -18525.134551    270.286628  7  5  6  99       
PG08  26065.438809   5416.659994   -332.332030    -83.003516  5  4  8  71       
PG09  16540.066011  -9958.013831 -18279.318064    479.613912  6  5  4 112       
PG10  -7338.083685  21908.100113  12998.854099    123.792648  4  5  7  70       
PG11  19811.594103   2222.584970  16933.081390   -729.349080  5  5  4  89       
PG12 -20704.651078   6547.767283  14990.363329    361.817712  6  7  4  93       
PG13 -22510.484519 -12445.217991  -6702.916400    -94.530889  8  9  9 112       
PG14   9908.960631  16474.753990  18675.625674    -89.957222  6  6  5  66       
PG15 -26607.118087  -2719.598568    994.340564   -357.349824  8 10  9 112       
PG16  12173.597435   8567.335313 -22153.982299     35.783754  8  7  8 106       
PG17     25.871446 -15276.391487  22121.665065   -140.168427  8  7  6  94       
PG18 -14473.013850  21980.739388   3376.534271    633.266195  4  4  5 117       
PG19  -8480.677416 -16057.614946  19024.819585   -471.751979  7  7  7  98       
PG20 -20153.377012   8026.030133 -15455.872332    494.697225  8  7  7 118       
PG21  -5800.908395  19081.529304 -16721.908607   -455.679400  5  6  7 142       
PG22  19738.277635  -3128.456200  17743.658929   -211.834077  3  4  5  83       
PG23  24665.450014  -2383.716007  -9859.732041   -218.900436  6  5  7  86       
PG24 -16680.716399  -2297.261614  20499.381908    -43.052865  7  9  3 120       
PG25 -19557.454597  17189.721537   4434.438163   -500.647362  6  8  8  85       
PG26   3375.154743  17354.574636 -19779.254265   -337.014626  5  6  6  97       
PG27  20516.530077  12361.989778 -11781.898627    353.547982  2  5  6  85       
PG28  11590.569214 -21320.311638  11457.415666    668.324155  5  4  4  85       
PG29 -20595.428172   5355.284810 -15897.747396    529.406276  4  7  6  95       
PG30   2236.258621 -23756.567370 -11502.633099    123.116489  6  5  7 105       
PG31   7193.624254  25328.169080    323.981133    157.609146  8  8  5  90       
PG32   2393.437337  15764.640787  21271.923461   -528.069532  5  3  7  72       
*  2017 12  5  8 45  0.00000000
PG01  16141.835469   1774.053168  20936.452965    -14.733428  3  3  4 114       
PG02 -14372.746360 -21710.079973  -5451.399494    263.497966  7  7  5  95       
PG03  20147.594663  -8841.639786  14822.533628    -31.939665  5  6  5  67       
PG04  -4177.156787  21233.777613 -15436.548903 999999.999999
PG05 -11192.908250 -10928.676601 -21554.426392    -20.694231  8  8  6  86       
PG06  -6805.929234 -25252.837593   4628.155064    412.294624  5  2  3  52       
PG07   9312.163447 -14556.592481 -19843.026268    270.282140  7  5  6 120       
PG08  25824.935722   5604.698788  -3186.845810    -83.004769  6  5  8  99       
PG09  18478.484698  -9473.735952 -16600.537258    479.617915  5  4  4 119       
PG10  -8376.681576  22801.796686  10596.519541    123.798962  4  5  6  87       
PG11  20955.580406   3834.733337  15226.638086   -729.350344  5  5  3  91       
PG12 -19524.407676   5103.418083  16997.033612    361.816094  6  7  3 112       
PG13 -21581.777185 -12390.260268  -9374.985006    -94.531256  9  8  9 113       
PG14   7795.374512  16040.087332  20012.927339    -89.957987  5  6  5  27       
PG15 -26553.338657  -3031.900512  -1772.991188   -357.349953  9 10  9 110       
PG16  10409.626533  10345.230746 -22258.766969     35.783236  9  7  8 108       
PG17   2421.683036 -14739.638345  22343.269565   -140.165995  8  7  5 107       
PG18 -14864.618668  21894.470780    594.317041    633.266342  5  3  4 114       
PG19  -6231.173456 -15540.028241  20283.957565   -471.749948  7  7  7  90       
PG20 -19296.911555   6364.325024 -17240.402197    494.697836  7  7  7 127       
PG21  -6804.591395  17165.845403 -18280.449928   -455.675928  4  5  6 146       
PG22  18626.134437  -1364.756690  19131.144444   -211.845857  3  3  6  93       
PG23  25615.943092  -1970.754778  -7295.683763   -218.900484  7  6  7  91       
PG24 -17459.085243  -4471.137254  19496.544406    -43.053559  7  9  4 115       
PG25 -19284.594015  16518.825200   7227.907111   -500.653023  6  8  8  92       
PG26   1891.121915  18973.521489 -18435.368920   -337.001620  6  6  6 102       
PG27  19049.277829  12265.805884 -14106.043055    353.550821  3  6  5 108       
PG28  12451.969162 -21980.898561   8869.984382    668.327093  6  3  3 101       
PG29 -22207.314626   4824.498394 -13750.496894    529.401931  4  7  6  92       
PG30   2896.465922 -22434.761192 -13793.966167    123.113841  7  6  7 123       
PG31   6871.988597  25225.701929   3204.225452    157.606999  8  7  4 105       
PG32    -30.912773  15390.262594  21671.633878   -528.071544  5  3  6  64       
EOF
